[{"OBJECT_NAME":"HORS 2","OBJECT_ID":"2023-091AG","EPOCH":"2026-03-09T22:11:34.810944","MEAN_MOTION":15.2928008,"ECCENTRICITY":0.00098173,"INCLINATION":97.5195,"RA_OF_ASC_NODE":134.7443,"ARG_OF_PERICENTER":79.3164,"MEAN_ANOMALY":280.9181,"EPHEMERIS_TYPE":0,"CLASSIFICATION_TYPE":"U","NORAD_CAT_ID":57196,"ELEMENT_SET_NO":999,"REV_AT_EPOCH":14934,"BSTAR":0.00059338338,"MEAN_MOTION_DOT":0.00016821,"MEAN_MOTION_DDOT":0},{"OBJECT_NAME":"STARLINK-34319","OBJECT_ID":"2025-120N","EPOCH":"2026-03-09T12:56:25.486368","MEAN_MOTION":15.30195371,"ECCENTRICITY":0.00012699,"INCLINATION":53.1585,"RA_OF_ASC_NODE":117.3485,"ARG_OF_PERICENTER":80.5476,"MEAN_ANOMALY":279.5668,"EPHEMERIS_TYPE":0,"CLASSIFICATION_TYPE":"U","NORAD_CAT_ID":64268,"ELEMENT_SET_NO":999,"REV_AT_EPOCH":4389,"BSTAR":0.0010320328,"MEAN_MOTION_DOT":0.00030327,"MEAN_MOTION_DDOT":0}]
